CCSDS_OEM_VERS = 1.0
CREATION_DATE  = 2017-05-11T11:08:10
ORIGINATOR     = GMAT USER

META_START
OBJECT_NAME          = MOPSSat_alt_35785_km_RAAN_0_157
OBJECT_ID            = SatId
CENTER_NAME          = Earth
REF_FRAME            = EME2000
TIME_SYSTEM          = UTC
START_TIME           = 2017-01-01T00:00:00.000
USEABLE_START_TIME   = 2017-01-01T00:00:00.000
USEABLE_STOP_TIME    = 2017-01-02T00:00:00.000
STOP_TIME            = 2017-01-02T00:00:00.000
INTERPOLATION        = Lagrange
INTERPOLATION_DEGREE = 7 
META_STOP


                                                                                   

2017-01-01T04:07:30.000  -2.987329335638266e+04   3.351616254038971e+04   1.319807481406177e-01  -2.869856737749454e+00  -2.519381813872741e-01   3.056439966124120e-05
2017-01-01T04:07:40.000  -2.990198534521100e+04   3.351363578082150e+04   1.322865657324837e-01  -2.868541127341147e+00  -2.534134360802027e-01   3.059911961779878e-05
2017-01-01T04:07:50.000  -2.993066417947359e+04   3.351109427771381e+04   1.325927305356673e-01  -2.867225766874570e+00  -2.548868846922048e-01   3.063384130642585e-05
2017-01-01T04:08:00.000  -2.995932986167192e+04   3.350853804911223e+04   1.328992425674282e-01  -2.865910656817787e+00  -2.563585302013083e-01   3.066856471347014e-05
2017-01-01T04:08:10.000  -2.998798239429680e+04   3.350596711303358e+04   1.332061018447387e-01  -2.864595797636568e+00  -2.578283755783091e-01   3.070328982527131e-05
2017-01-01T04:08:20.000  -3.001662177955451e+04   3.350338148749254e+04   1.335133083812876e-01  -2.863281189806997e+00  -2.592964237728935e-01   3.073801662783500e-05
2017-01-01T04:08:30.000  -3.004524801973626e+04   3.350078119046667e+04   1.338208621914982e-01  -2.861966833798496e+00  -2.607626777324626e-01   3.077274510727463e-05
2017-01-01T04:08:40.000  -3.007386111706961e+04   3.349816623991019e+04   1.341287632889215e-01  -2.860652730080658e+00  -2.622271403945693e-01   3.080747524963381e-05
2017-01-01T04:08:50.000  -3.010246107437501e+04   3.349553665369428e+04   1.344370116932998e-01  -2.859338879093120e+00  -2.636898147205382e-01   3.084220704167504e-05
2017-01-01T04:09:00.000  -3.013104789440737e+04   3.349289244966694e+04   1.347456074234882e-01  -2.858025281275798e+00  -2.651507036617750e-01   3.087694047008903e-05
2017-01-01T04:09:10.000  -3.015962158002626e+04   3.349023364563783e+04   1.350545504992791e-01  -2.856711937061097e+00  -2.666098101685015e-01   3.091167552169784e-05
2017-01-01T04:09:20.000  -3.018818213373794e+04   3.348756025941909e+04   1.353638409365079e-01  -2.855398846894922e+00  -2.680671371662718e-01   3.094641218290837e-05
2017-01-01T04:09:30.000  -3.021672955807348e+04   3.348487230879198e+04   1.356734787510855e-01  -2.854086011219360e+00  -2.695226875754129e-01   3.098115044016196e-05
2017-01-01T04:09:40.000  -3.024526385550416e+04   3.348216981151440e+04   1.359834639581003e-01  -2.852773430476560e+00  -2.709764643066940e-01   3.101589027983498e-05
2017-01-01T04:09:50.000  -3.027378502846541e+04   3.347945278531985e+04   1.362937965720394e-01  -2.851461105107681e+00  -2.724284702626433e-01   3.105063168825954e-05
2017-01-01T04:10:00.000  -3.030229307938418e+04   3.347672124791385e+04   1.366044766071189e-01  -2.850149035551607e+00  -2.738787083388988e-01   3.108537465176476e-05
2017-01-01T04:10:10.000  -3.033078801068954e+04   3.347397521697324e+04   1.369155040773935e-01  -2.848837222244494e+00  -2.753271814247634e-01   3.112011915668732e-05
2017-01-01T04:10:20.000  -3.035926982491478e+04   3.347121471013687e+04   1.372268789978565e-01  -2.847525665615077e+00  -2.767738924084574e-01   3.115486518950051e-05
2017-01-01T04:10:30.000  -3.038773852462900e+04   3.346843974501156e+04   1.375386013837140e-01  -2.846214366087818e+00  -2.782188441736079e-01   3.118961273672682e-05
2017-01-01T04:10:40.000  -3.041619411243722e+04   3.346565033917236e+04   1.378506712503810e-01  -2.844903324082924e+00  -2.796620395992813e-01   3.122436178493937e-05
2017-01-01T04:10:50.000  -3.044463659104765e+04   3.346284651015529e+04   1.381630886142392e-01  -2.843592540013237e+00  -2.811034815633696e-01   3.125911232084161e-05
2017-01-01T04:11:00.000  -3.047306596317025e+04   3.346002827546800e+04   1.384758534915113e-01  -2.842282014288937e+00  -2.825431729374966e-01   3.129386433114603e-05
2017-01-01T04:11:10.000  -3.050148223150662e+04   3.345719565259074e+04   1.387889658981451e-01  -2.840971747318009e+00  -2.839811165865281e-01   3.132861780256063e-05
2017-01-01T04:11:20.000  -3.052988539872083e+04   3.345434865897847e+04   1.391024258495243e-01  -2.839661739507591e+00  -2.854173153670455e-01   3.136337272175575e-05
2017-01-01T04:11:30.000  -3.055827546741760e+04   3.345148731206424e+04   1.394162333601911e-01  -2.838351991265013e+00  -2.868517721263437e-01   3.139812907533509e-05
2017-01-01T04:11:40.000  -3.058665244022548e+04   3.344861162925036e+04   1.397303884447807e-01  -2.837042502993956e+00  -2.882844897066125e-01   3.143288684993783e-05
2017-01-01T04:11:50.000  -3.061501631942418e+04   3.344572162794790e+04   1.400448911138470e-01  -2.835733275111700e+00  -2.897154709262441e-01   3.146764603178174e-05
2017-01-01T04:12:00.000  -3.064336710739627e+04   3.344281732552924e+04   1.403597413789129e-01  -2.834424308028254e+00  -2.911447186025570e-01   3.150240660721653e-05
2017-01-01T04:12:10.000  -3.067170480645913e+04   3.343989873934571e+04   1.406749392505966e-01  -2.833115602154128e+00  -2.925722355433464e-01   3.153716856251869e-05
2017-01-01T04:12:20.000  -3.070002941951678e+04   3.343696588666065e+04   1.409904847458578e-01  -2.831807157870251e+00  -2.939980245797557e-01   3.157193188468653e-05
2017-01-01T04:12:30.000  -3.072834094940953e+04   3.343401878471610e+04   1.413063778807730e-01  -2.830498975558006e+00  -2.954220885335020e-01   3.160669656064756e-05
2017-01-01T04:12:40.000  -3.075663939906143e+04   3.343105745071806e+04   1.416226186721664e-01  -2.829191055592439e+00  -2.968444302243542e-01   3.164146257743705e-05
2017-01-01T04:12:50.000  -3.078492477111208e+04   3.342808190187295e+04   1.419392071335619e-01  -2.827883398359240e+00  -2.982650524514874e-01   3.167622992175468e-05
2017-01-01T04:13:00.000  -3.081319706819044e+04   3.342509215536115e+04   1.422561432781753e-01  -2.826576004242146e+00  -2.996839580074186e-01   3.171099858029178e-05
2017-01-01T04:13:10.000  -3.084145629291416e+04   3.342208822833629e+04   1.425734271189332e-01  -2.825268873622965e+00  -3.011011496779266e-01   3.174576853973388e-05
2017-01-01T04:13:20.000  -3.086970244761955e+04   3.341907013795611e+04   1.428910586653764e-01  -2.823962006894122e+00  -3.025166302286673e-01   3.178053978641862e-05
2017-01-01T04:13:30.000  -3.089793553472585e+04   3.341603790134184e+04   1.432090379278129e-01  -2.822655404441778e+00  -3.039304024233275e-01   3.181531230679380e-05
2017-01-01T04:13:40.000  -3.092615555659153e+04   3.341299153559399e+04   1.435273649156880e-01  -2.821349066652497e+00  -3.053424690164646e-01   3.185008608723723e-05
2017-01-01T04:13:50.000  -3.095436251615108e+04   3.340993105772376e+04   1.438460396447654e-01  -2.820042993883778e+00  -3.067528327853971e-01   3.188486111484894e-05
2017-01-01T04:14:00.000  -3.098255641627804e+04   3.340685648472171e+04   1.441650621299498e-01  -2.818737186493556e+00  -3.081614964983267e-01   3.191963737665893e-05
2017-01-01T04:14:10.000  -3.101073725992921e+04   3.340376783354245e+04   1.444844323869031e-01  -2.817431644833531e+00  -3.095684629215958e-01   3.195441485980729e-05
2017-01-01T04:14:20.000  -3.103890504977780e+04   3.340066512114284e+04   1.448041504279566e-01  -2.816126369266136e+00  -3.109737348012445e-01   3.198919355108645e-05
2017-01-01T04:14:30.000  -3.106705978848628e+04   3.339754836445435e+04   1.451242162651325e-01  -2.814821360151950e+00  -3.123773148767940e-01   3.202397343728285e-05
2017-01-01T04:14:40.000  -3.109520147870563e+04   3.339441758038227e+04   1.454446299101632e-01  -2.813516617849729e+00  -3.137792058811684e-01   3.205875450517423e-05
2017-01-01T04:14:50.000  -3.112333012280642e+04   3.339127278583786e+04   1.457653913713647e-01  -2.812212142728925e+00  -3.151794105274528e-01   3.209353674120233e-05
2017-01-01T04:15:00.000  -3.115144572324162e+04   3.338811399769595e+04   1.460865006578298e-01  -2.810907935152831e+00  -3.165779315268519e-01   3.212832013191621e-05
2017-01-01T04:15:10.000  -3.117954828240343e+04   3.338494123281146e+04   1.464079577777824e-01  -2.809603995485247e+00  -3.179747715816064e-01   3.216310466379739e-05
2017-01-01T04:15:20.000  -3.120763780325753e+04   3.338175450794807e+04   1.467297627458296e-01  -2.808300324061053e+00  -3.193699334165398e-01   3.219789032403755e-05
2017-01-01T04:15:30.000  -3.123571428870863e+04   3.337855383984952e+04   1.470519155757128e-01  -2.806996921215664e+00  -3.207634197475238e-01   3.223267709976079e-05
2017-01-01T04:15:40.000  -3.126377774174417e+04   3.337533924522383e+04   1.473744162819408e-01  -2.805693787278368e+00  -3.221552332886570e-01   3.226746497819853e-05
2017-01-01T04:15:50.000  -3.129182816506898e+04   3.337211074078309e+04   1.476972648756608e-01  -2.804390922589261e+00  -3.235453767340226e-01   3.230225394624611e-05
2017-01-01T04:16:00.000  -3.131986556137697e+04   3.336886834321450e+04   1.480204613677103e-01  -2.803088327486688e+00  -3.249338527713198e-01   3.233704399079015e-05
2017-01-01T04:16:10.000  -3.134788993335041e+04   3.336561206917978e+04   1.483440057686363e-01  -2.801786002307266e+00  -3.263206640817887e-01   3.237183509871087e-05
2017-01-01T04:16:20.000  -3.137590128339209e+04   3.336234193534825e+04   1.486678980855386e-01  -2.800483947398380e+00  -3.277058133271094e-01   3.240662725654124e-05
2017-01-01T04:16:30.000  -3.140389961398670e+04   3.335905795835310e+04   1.489921383263037e-01  -2.799182163101371e+00  -3.290893031671666e-01   3.244142045092372e-05
